[{"OBJECT_NAME":"STARLINK-35627","OBJECT_ID":"2025-240AC","EPOCH":"2026-03-09T23:41:37.440960","MEAN_MOTION":15.30202636,"ECCENTRICITY":0.00013823,"INCLINATION":53.1592,"RA_OF_ASC_NODE":61.4385,"ARG_OF_PERICENTER":101.735,"MEAN_ANOMALY":258.3805,"EPHEMERIS_TYPE":0,"CLASSIFICATION_TYPE":"U","NORAD_CAT_ID":66172,"ELEMENT_SET_NO":999,"REV_AT_EPOCH":2203,"BSTAR":0.00097583491,"MEAN_MOTION_DOT":0.00028656,"MEAN_MOTION_DDOT":0},{"OBJECT_NAME":"CZ-6A DEB","OBJECT_ID":"2022-151QB","EPOCH":"2026-03-08T18:03:47.471328","MEAN_MOTION":15.32168285,"ECCENTRICITY":0.00205863,"INCLINATION":98.6246,"RA_OF_ASC_NODE":151.4486,"ARG_OF_PERICENTER":181.9757,"MEAN_ANOMALY":178.1404,"EPHEMERIS_TYPE":0,"CLASSIFICATION_TYPE":"U","NORAD_CAT_ID":54890,"ELEMENT_SET_NO":999,"REV_AT_EPOCH":17659,"BSTAR":0.012866954,"MEAN_MOTION_DOT":0.00424465,"MEAN_MOTION_DDOT":0}]
